KUIPER-00167            
1 65780U 25217U   25284.12851205  .00039252  00000+0  11292-2 0  9995
2 65780  51.8695   7.1214 0006296 152.3843 207.7478 15.35385371  2419
KUIPER-00168            
1 65781U 25217V   25284.11038832  .00050914  00000+0  13804-2 0  9997
2 65781  51.8748   7.0007 0001596  40.4985 319.6120 15.37131268  2413
KUIPER-00169            
1 65782U 25217W   25284.11846353  .00038001  00000+0  10602-2 0  9999
2 65782  51.8736   7.0530 0003137 119.1433 240.9867 15.36373006  2418
KUIPER-00170            
1 65783U 25217X   25284.12749666  .00050946  00000+0  14555-2 0  9993
2 65783  51.8683   7.1148 0006767 146.0212 214.1208 15.35481488  2417
KUIPER-00171            
1 65784U 25217Y   25283.73199606  .00040250  00000+0  11343-2 0  9992
2 65784  51.8692   8.9654 0004725 137.9200 222.2150 15.36028475  2350
KUIPER-00172            
1 65785U 25217Z   25284.11423347  .00056445  00000+0  15447-2 0  9990
2 65785  51.8743   7.0260 0002391  90.8795 269.2466 15.36796846  2416
KUIPER-00173            
1 65786U 25217AA  25284.11653360  .00043014  00000+0  11897-2 0  9994
2 65786  51.8726   7.0426 0002768 108.4786 251.6502 15.36586705  2413
KUIPER-00174            
1 65787U 25217AB  25284.11125816  .00034027  00000+0  93006-3 0  9992
2 65787  51.8748   7.0041 0002580  37.1678 322.9486 15.37065445  2418
