<?xml version="1.0" encoding="UTF-8"?>
<ndm xmlns:xsi="http://www.w3.org/2001/XMLSchema-instance" xsi:noNamespaceSchemaLocation="https://sanaregistry.org/r/ndmxml_unqualified/ndmxml-2.0.0-master-2.0.xsd">
<omm id="CCSDS_OMM_VERS" version="2.0">
<header><CREATION_DATE/><ORIGINATOR/></header><body><segment><metadata><OBJECT_NAME>KUIPER-00167</OBJECT_NAME><OBJECT_ID>2025-217U</OBJECT_ID><CENTER_NAME>EARTH</CENTER_NAME><REF_FRAME>TEME</REF_FRAME><TIME_SYSTEM>UTC</TIME_SYSTEM><MEAN_ELEMENT_THEORY>SGP4</MEAN_ELEMENT_THEORY></metadata><data><meanElements><EPOCH>2025-10-11T03:05:03.441120</EPOCH><MEAN_MOTION>15.35385371</MEAN_MOTION><ECCENTRICITY>.0006296</ECCENTRICITY><INCLINATION>51.8695</INCLINATION><RA_OF_ASC_NODE>7.1214</RA_OF_ASC_NODE><ARG_OF_PERICENTER>152.3843</ARG_OF_PERICENTER><MEAN_ANOMALY>207.7478</MEAN_ANOMALY></meanElements><tleParameters><EPHEMERIS_TYPE>0</EPHEMERIS_TYPE><CLASSIFICATION_TYPE>U</CLASSIFICATION_TYPE><NORAD_CAT_ID>65780</NORAD_CAT_ID><ELEMENT_SET_NO>999</ELEMENT_SET_NO><REV_AT_EPOCH>241</REV_AT_EPOCH><BSTAR>.11292E-2</BSTAR><MEAN_MOTION_DOT>.39252E-3</MEAN_MOTION_DOT><MEAN_MOTION_DDOT>0</MEAN_MOTION_DDOT></tleParameters></data></segment></body></omm>
<omm id="CCSDS_OMM_VERS" version="2.0">
<header><CREATION_DATE/><ORIGINATOR/></header><body><segment><metadata><OBJECT_NAME>KUIPER-00168</OBJECT_NAME><OBJECT_ID>2025-217V</OBJECT_ID><CENTER_NAME>EARTH</CENTER_NAME><REF_FRAME>TEME</REF_FRAME><TIME_SYSTEM>UTC</TIME_SYSTEM><MEAN_ELEMENT_THEORY>SGP4</MEAN_ELEMENT_THEORY></metadata><data><meanElements><EPOCH>2025-10-11T02:38:57.550848</EPOCH><MEAN_MOTION>15.37131268</MEAN_MOTION><ECCENTRICITY>.0001596</ECCENTRICITY><INCLINATION>51.8748</INCLINATION><RA_OF_ASC_NODE>7.0007</RA_OF_ASC_NODE><ARG_OF_PERICENTER>40.4985</ARG_OF_PERICENTER><MEAN_ANOMALY>319.6120</MEAN_ANOMALY></meanElements><tleParameters><EPHEMERIS_TYPE>0</EPHEMERIS_TYPE><CLASSIFICATION_TYPE>U</CLASSIFICATION_TYPE><NORAD_CAT_ID>65781</NORAD_CAT_ID><ELEMENT_SET_NO>999</ELEMENT_SET_NO><REV_AT_EPOCH>241</REV_AT_EPOCH><BSTAR>.13804E-2</BSTAR><MEAN_MOTION_DOT>.50914E-3</MEAN_MOTION_DOT><MEAN_MOTION_DDOT>0</MEAN_MOTION_DDOT></tleParameters></data></segment></body></omm>
<omm id="CCSDS_OMM_VERS" version="2.0">
<header><CREATION_DATE/><ORIGINATOR/></header><body><segment><metadata><OBJECT_NAME>KUIPER-00169</OBJECT_NAME><OBJECT_ID>2025-217W</OBJECT_ID><CENTER_NAME>EARTH</CENTER_NAME><REF_FRAME>TEME</REF_FRAME><TIME_SYSTEM>UTC</TIME_SYSTEM><MEAN_ELEMENT_THEORY>SGP4</MEAN_ELEMENT_THEORY></metadata><data><meanElements><EPOCH>2025-10-11T02:50:35.248992</EPOCH><MEAN_MOTION>15.36373006</MEAN_MOTION><ECCENTRICITY>.0003137</ECCENTRICITY><INCLINATION>51.8736</INCLINATION><RA_OF_ASC_NODE>7.0530</RA_OF_ASC_NODE><ARG_OF_PERICENTER>119.1433</ARG_OF_PERICENTER><MEAN_ANOMALY>240.9867</MEAN_ANOMALY></meanElements><tleParameters><EPHEMERIS_TYPE>0</EPHEMERIS_TYPE><CLASSIFICATION_TYPE>U</CLASSIFICATION_TYPE><NORAD_CAT_ID>65782</NORAD_CAT_ID><ELEMENT_SET_NO>999</ELEMENT_SET_NO><REV_AT_EPOCH>241</REV_AT_EPOCH><BSTAR>.10602E-2</BSTAR><MEAN_MOTION_DOT>.38001E-3</MEAN_MOTION_DOT><MEAN_MOTION_DDOT>0</MEAN_MOTION_DDOT></tleParameters></data></segment></body></omm>
<omm id="CCSDS_OMM_VERS" version="2.0">
<header><CREATION_DATE/><ORIGINATOR/></header><body><segment><metadata><OBJECT_NAME>KUIPER-00170</OBJECT_NAME><OBJECT_ID>2025-217X</OBJECT_ID><CENTER_NAME>EARTH</CENTER_NAME><REF_FRAME>TEME</REF_FRAME><TIME_SYSTEM>UTC</TIME_SYSTEM><MEAN_ELEMENT_THEORY>SGP4</MEAN_ELEMENT_THEORY></metadata><data><meanElements><EPOCH>2025-10-11T03:03:35.711424</EPOCH><MEAN_MOTION>15.35481488</MEAN_MOTION><ECCENTRICITY>.0006767</ECCENTRICITY><INCLINATION>51.8683</INCLINATION><RA_OF_ASC_NODE>7.1148</RA_OF_ASC_NODE><ARG_OF_PERICENTER>146.0212</ARG_OF_PERICENTER><MEAN_ANOMALY>214.1208</MEAN_ANOMALY></meanElements><tleParameters><EPHEMERIS_TYPE>0</EPHEMERIS_TYPE><CLASSIFICATION_TYPE>U</CLASSIFICATION_TYPE><NORAD_CAT_ID>65783</NORAD_CAT_ID><ELEMENT_SET_NO>999</ELEMENT_SET_NO><REV_AT_EPOCH>241</REV_AT_EPOCH><BSTAR>.14555E-2</BSTAR><MEAN_MOTION_DOT>.50946E-3</MEAN_MOTION_DOT><MEAN_MOTION_DDOT>0</MEAN_MOTION_DDOT></tleParameters></data></segment></body></omm>
<omm id="CCSDS_OMM_VERS" version="2.0">
<header><CREATION_DATE/><ORIGINATOR/></header><body><segment><metadata><OBJECT_NAME>KUIPER-00171</OBJECT_NAME><OBJECT_ID>2025-217Y</OBJECT_ID><CENTER_NAME>EARTH</CENTER_NAME><REF_FRAME>TEME</REF_FRAME><TIME_SYSTEM>UTC</TIME_SYSTEM><MEAN_ELEMENT_THEORY>SGP4</MEAN_ELEMENT_THEORY></metadata><data><meanElements><EPOCH>2025-10-10T17:34:04.459584</EPOCH><MEAN_MOTION>15.36028475</MEAN_MOTION><ECCENTRICITY>.0004725</ECCENTRICITY><INCLINATION>51.8692</INCLINATION><RA_OF_ASC_NODE>8.9654</RA_OF_ASC_NODE><ARG_OF_PERICENTER>137.9200</ARG_OF_PERICENTER><MEAN_ANOMALY>222.2150</MEAN_ANOMALY></meanElements><tleParameters><EPHEMERIS_TYPE>0</EPHEMERIS_TYPE><CLASSIFICATION_TYPE>U</CLASSIFICATION_TYPE><NORAD_CAT_ID>65784</NORAD_CAT_ID><ELEMENT_SET_NO>999</ELEMENT_SET_NO><REV_AT_EPOCH>235</REV_AT_EPOCH><BSTAR>.11343E-2</BSTAR><MEAN_MOTION_DOT>.4025E-3</MEAN_MOTION_DOT><MEAN_MOTION_DDOT>0</MEAN_MOTION_DDOT></tleParameters></data></segment></body></omm>
<omm id="CCSDS_OMM_VERS" version="2.0">
<header><CREATION_DATE/><ORIGINATOR/></header><body><segment><metadata><OBJECT_NAME>KUIPER-00172</OBJECT_NAME><OBJECT_ID>2025-217Z</OBJECT_ID><CENTER_NAME>EARTH</CENTER_NAME><REF_FRAME>TEME</REF_FRAME><TIME_SYSTEM>UTC</TIME_SYSTEM><MEAN_ELEMENT_THEORY>SGP4</MEAN_ELEMENT_THEORY></metadata><data><meanElements><EPOCH>2025-10-11T02:44:29.771808</EPOCH><MEAN_MOTION>15.36796846</MEAN_MOTION><ECCENTRICITY>.0002391</ECCENTRICITY><INCLINATION>51.8743</INCLINATION><RA_OF_ASC_NODE>7.0260</RA_OF_ASC_NODE><ARG_OF_PERICENTER>90.8795</ARG_OF_PERICENTER><MEAN_ANOMALY>269.2466</MEAN_ANOMALY></meanElements><tleParameters><EPHEMERIS_TYPE>0</EPHEMERIS_TYPE><CLASSIFICATION_TYPE>U</CLASSIFICATION_TYPE><NORAD_CAT_ID>65785</NORAD_CAT_ID><ELEMENT_SET_NO>999</ELEMENT_SET_NO><REV_AT_EPOCH>241</REV_AT_EPOCH><BSTAR>.15447E-2</BSTAR><MEAN_MOTION_DOT>.56445E-3</MEAN_MOTION_DOT><MEAN_MOTION_DDOT>0</MEAN_MOTION_DDOT></tleParameters></data></segment></body></omm>
<omm id="CCSDS_OMM_VERS" version="2.0">
<header><CREATION_DATE/><ORIGINATOR/></header><body><segment><metadata><OBJECT_NAME>KUIPER-00173</OBJECT_NAME><OBJECT_ID>2025-217AA</OBJECT_ID><CENTER_NAME>EARTH</CENTER_NAME><REF_FRAME>TEME</REF_FRAME><TIME_SYSTEM>UTC</TIME_SYSTEM><MEAN_ELEMENT_THEORY>SGP4</MEAN_ELEMENT_THEORY></metadata><data><meanElements><EPOCH>2025-10-11T02:47:48.503040</EPOCH><MEAN_MOTION>15.36586705</MEAN_MOTION><ECCENTRICITY>.0002768</ECCENTRICITY><INCLINATION>51.8726</INCLINATION><RA_OF_ASC_NODE>7.0426</RA_OF_ASC_NODE><ARG_OF_PERICENTER>108.4786</ARG_OF_PERICENTER><MEAN_ANOMALY>251.6502</MEAN_ANOMALY></meanElements><tleParameters><EPHEMERIS_TYPE>0</EPHEMERIS_TYPE><CLASSIFICATION_TYPE>U</CLASSIFICATION_TYPE><NORAD_CAT_ID>65786</NORAD_CAT_ID><ELEMENT_SET_NO>999</ELEMENT_SET_NO><REV_AT_EPOCH>241</REV_AT_EPOCH><BSTAR>.11897E-2</BSTAR><MEAN_MOTION_DOT>.43014E-3</MEAN_MOTION_DOT><MEAN_MOTION_DDOT>0</MEAN_MOTION_DDOT></tleParameters></data></segment></body></omm>
<omm id="CCSDS_OMM_VERS" version="2.0">
<header><CREATION_DATE/><ORIGINATOR/></header><body><segment><metadata><OBJECT_NAME>KUIPER-00174</OBJECT_NAME><OBJECT_ID>2025-217AB</OBJECT_ID><CENTER_NAME>EARTH</CENTER_NAME><REF_FRAME>TEME</REF_FRAME><TIME_SYSTEM>UTC</TIME_SYSTEM><MEAN_ELEMENT_THEORY>SGP4</MEAN_ELEMENT_THEORY></metadata><data><meanElements><EPOCH>2025-10-11T02:40:12.705024</EPOCH><MEAN_MOTION>15.37065445</MEAN_MOTION><ECCENTRICITY>.000258</ECCENTRICITY><INCLINATION>51.8748</INCLINATION><RA_OF_ASC_NODE>7.0041</RA_OF_ASC_NODE><ARG_OF_PERICENTER>37.1678</ARG_OF_PERICENTER><MEAN_ANOMALY>322.9486</MEAN_ANOMALY></meanElements><tleParameters><EPHEMERIS_TYPE>0</EPHEMERIS_TYPE><CLASSIFICATION_TYPE>U</CLASSIFICATION_TYPE><NORAD_CAT_ID>65787</NORAD_CAT_ID><ELEMENT_SET_NO>999</ELEMENT_SET_NO><REV_AT_EPOCH>241</REV_AT_EPOCH><BSTAR>.93006E-3</BSTAR><MEAN_MOTION_DOT>.34027E-3</MEAN_MOTION_DOT><MEAN_MOTION_DDOT>0</MEAN_MOTION_DDOT></tleParameters></data></segment></body></omm>

</ndm>
